NORAD_CAT_ID,OBJECT_NAME,OBJECT_TYPE,EPOCH,MEAN_MOTION,ECCENTRICITY,INCLINATION,RA_OF_ASC_NODE,ARG_OF_PERICENTER,MEAN_ANOMALY,BSTAR,MEAN_MOTION_DOT,MEAN_MOTION_DDOT,TLE_LINE0,TLE_LINE1,TLE_LINE2,SEMIMAJOR_AXIS,PERIOD,APOGEE,PERIGEE,DECAYED
53422.0,STARLINK-4546,PAYLOAD,2022-09-29 14:00:01,15.49925597,0.0002131999999999,53.2176,0.3917,31.3744,312.0522,-0.0014834,-0.00083874,0.0,0 STARLINK-4546,1 53422U 22097AL  22272.58334491 -.00083874  00000-0 -14834-2 0  9992,2 53422  53.2176   0.3917 0002132  31.3744 312.0522 15.49925597  1307,6795.081,92.908,418.394,415.497,0.0
53422.0,STARLINK-4546,PAYLOAD,2022-09-29 22:00:00,15.49878702,0.0002028,53.2176,358.7976,27.7437,16.6087,-0.00033054,-0.00019163,0.0,0 STARLINK-4546,1 53422U 22097AL  22272.91667824 -.00019163  00000-0 -33054-3 0  9994,2 53422  53.2176 358.7976 0002028  27.7437  16.6087 15.49878702  1302,6795.218000000003,92.91,418.461,415.705,0.0
53422.0,STARLINK-4546,PAYLOAD,2022-09-30 06:00:02,15.49878331,0.0001982,53.2178,357.2036,32.5508,72.7622,0.00045839,0.00025644,0.0,0 STARLINK-4546,1 53422U 22097AL  22273.25002315  .00025644  00000-0  45839-3 0  9993,2 53422  53.2178 357.2036 0001982  32.5508  72.7622 15.49878331  8444,6795.219,92.911,418.43,415.737,0.0
53422.0,STARLINK-4546,PAYLOAD,2022-09-30 14:00:01,15.49877788,0.0002325,53.2176,355.6147,27.9624,138.2059,0.00074724,0.00042178,0.0,0 STARLINK-4546,1 53422U 22097AL  22273.58334491  .00042178  00000-0  74724-3 0  9998,2 53422  53.2176 355.6147 0002325  27.9624 138.2059 15.49877788  1301,6795.22,92.911,418.665,415.505,0.0
53422.0,STARLINK-4546,PAYLOAD,2022-09-30 22:00:00,15.5011538,0.0001724,53.217,354.0247,3.3437,223.7209,-0.015279,-0.00802565,0.0,0 STARLINK-4546,1 53422U 22097AL  22273.91667824 -.00802565  00000-0 -15279-1 0  9998,2 53422  53.2170 354.0247 0001724   3.3437 223.7209 15.50115380  8546,6794.526,92.896,417.562,415.22,0.0
53422.0,STARLINK-4546,PAYLOAD,2022-10-01 06:00:00,15.49499315,0.0002151999999999,53.2172,352.4353,297.5622,350.4151,-0.011202,-0.00583092,0.0,0 STARLINK-4546,1 53422U 22097AL  22274.25001157 -.00583092  00000-0 -11202-1 0  9990,2 53422  53.2172 352.4353 0002152 297.5622 350.4151 15.49499315  8597,6796.3269999999975,92.933,419.654,416.729,0.0
53422.0,STARLINK-4546,PAYLOAD,2022-10-01 14:00:01,15.48870449,0.0001875999999999,53.2177,350.8472,19.2441,329.0579,-0.014948,-0.00755178,0.0,0 STARLINK-4546,1 53422U 22097AL  22274.58334491 -.00755178  00000-0 -14948-1 0  9992,2 53422  53.2177 350.8472 0001876  19.2441 329.0579 15.48870449  8648,6798.166,92.971,421.307,418.756,0.0
53422.0,STARLINK-4546,PAYLOAD,2022-10-01 22:00:00,15.48323112,0.0005677,53.2173,349.2598,275.1262,132.558,-0.021623,-0.01056297,0.0,0 STARLINK-4546,1 53422U 22097AL  22274.91667824 -.01056297  00000-0 -21623-1 0  9993,2 53422  53.2173 349.2598 0005677 275.1262 132.5580 15.48323112  8708,6799.768,93.004,425.49300000000005,417.773,0.0
53422.0,STARLINK-4546,PAYLOAD,2022-10-02 14:00:01,15.46880742,0.0001142,53.2176,346.0902,352.7199,171.1611,-0.025128,-0.01171793,0.0,0 STARLINK-4546,1 53422U 22097AL  22275.58334491 -.01171793  00000-0 -25128-1 0  9991,2 53422  53.2176 346.0902 0001142 352.7199 171.1611 15.46880742  1307,6803.994000000002,93.091,426.637,425.082,0.0
53422.0,STARLINK-4546,PAYLOAD,2022-10-02 22:00:00,15.46047674,0.0001575,53.2175,344.5092,44.8585,175.8091,-0.023496,-0.0105827999999999,0.0,0 STARLINK-4546,1 53422U 22097AL  22275.91667824 -.01058280  00000-0 -23496-1 0  9998,2 53422  53.2175 344.5092 0001575  44.8585 175.8091 15.46047674  1309,6806.438,93.141,429.375,427.231,0.0
53422.0,STARLINK-4546,PAYLOAD,2022-10-03 06:00:00,15.45308437,0.0001486,53.2172,342.9268,52.3361,224.1586,-0.02474,-0.01099027,0.0,0 STARLINK-4546,1 53422U 22097AL  22276.25001157 -.01099027  00000-0 -24740-1 0  9994,2 53422  53.2172 342.9268 0001486  52.3361 224.1586 15.45308437  8906,6808.609,93.185,431.486,429.462,0.0
53422.0,STARLINK-4546,PAYLOAD,2022-10-03 14:00:01,15.44559203,0.0001389,53.2176,341.3509,55.4848,275.9268,-0.02573,-0.01112712,0.0,0 STARLINK-4546,1 53422U 22097AL  22276.58334491 -.01112712  00000-0 -25730-1 0  9997,2 53422  53.2176 341.3509 0001389  55.4848 275.9268 15.44559203  1303,6810.811,93.23,433.622,431.73,0.0
53422.0,STARLINK-4546,PAYLOAD,2022-10-03 22:00:00,15.43769496,0.0001259,53.2176,339.7746,51.9195,333.5191,-0.025403,-0.01057923,0.0,0 STARLINK-4546,1 53422U 22097AL  22276.91667824 -.01057923  00000-0 -25403-1 0  9992,2 53422  53.2176 339.7746 0001259  51.9195 333.5191 15.43769496  1301,6813.1330000000025,93.278,435.856,434.14,0.0
53422.0,STARLINK-4546,PAYLOAD,2022-10-04 14:00:01,15.422469,0.0001517,53.2177,336.6288,50.78100000000001,79.9422,-0.0265709999999999,-0.0106625,0.0,0 STARLINK-4546,1 53422U 22097AL  22277.58334491 -.01066250  00000-0 -26571-1 0  9997,2 53422  53.2177 336.6288 0001517  50.7810  79.9422 15.42246900  1304,6817.6169999999975,93.37,440.516,438.447,0.0
53422.0,STARLINK-4546,PAYLOAD,2022-10-04 16:00:00,15.42058281,0.0001436,53.2173,336.2358,55.8545,177.7718,-0.026773,-0.0106743,0.0,0 STARLINK-4546,1 53422U 22097AL  22277.66667824 -.01067430  00000-0 -26773-1 0  9990,2 53422  53.2173 336.2358 0001436  55.8545 177.7718 15.42058281  9121,6818.172,93.382,441.017,439.0580000000001,0.0
53422.0,STARLINK-4546,PAYLOAD,2022-10-04 22:00:00,15.4151609,0.0001588999999999,53.2179,335.0548,46.1987,135.7855,-0.0283339999999999,-0.01105867,0.0,0 STARLINK-4546,1 53422U 22097AL  22277.91667824 -.01105867  00000-0 -28334-1 0  9990,2 53422  53.2179 335.0548 0001589  46.1987 135.7855 15.41516090  1301,6819.771,93.415,442.72,440.552,0.0
53422.0,STARLINK-4546,PAYLOAD,2022-10-05 14:00:01,15.39984058,0.0001568,53.2177,331.9201,52.4445,229.4176,-0.029292,-0.01087853,0.0,0 STARLINK-4546,1 53422U 22097AL  22278.58335648 -.01087853  00000-0 -29292-1 0  9998,2 53422  53.2177 331.9201 0001568  52.4445 229.4176 15.39984058  9266,6824.293000000002,93.507,447.228,445.088,0.0
53422.0,STARLINK-4546,PAYLOAD,2022-10-05 22:00:00,15.39211805,0.0001338,53.2176,330.3540000000001,49.3024,281.0372,-0.029536,-0.0107066,0.0,0 STARLINK-4546,1 53422U 22097AL  22278.91667824 -.01070660  00000-0 -29536-1 0  9998,2 53422  53.2176 330.3540 0001338  49.3024 281.0372 15.39211805  1309,6826.576,93.554,449.354,447.527,0.0
53422.0,STARLINK-4546,PAYLOAD,2022-10-06 14:00:01,15.37702886,0.0001379,53.2174,327.2292,51.5597,13.107,-0.031465,-0.01084221,0.0,0 STARLINK-4546,1 53422U 22097AL  22279.58334491 -.01084221  00000-0 -31465-1 0  9995,2 53422  53.2174 327.2292 0001379  51.5597  13.1070 15.37702886  1302,6831.041,93.646,453.848,451.964,0.0
53422.0,STARLINK-4546,PAYLOAD,2022-10-06 22:42:55,15.36862865,0.0001274999999999,53.2176,325.5287,66.0706,209.3229,-0.031734,-0.01065548,0.0,0 STARLINK-4546,1 53422U 22097AL  22279.94646991 -.01065548  00000-0 -31734-1 0  9996,2 53422  53.2176 325.5287 0001275  66.0706 209.3229 15.36862865  1305,6833.53,93.697,456.266,454.524,0.0
53422.0,STARLINK-4546,PAYLOAD,2022-10-07 00:00:00,15.36741824,0.00014,53.2174,325.2781,64.1994,147.5769,-0.031919,-0.01067418,0.0,0 STARLINK-4546,1 53422U 22097AL  22280.00001157 -.01067418  00000-0 -31919-1 0  9997,2 53422  53.2174 325.2781 0001400  64.1994 147.5769 15.36741824  9487,6833.889,93.705,456.71,454.797,0.0
53422.0,STARLINK-4546,PAYLOAD,2022-10-07 14:00:01,15.35415758,0.0001474,53.2174,322.5542,56.9395,142.384,-0.033422,-0.01070499,0.0,0 STARLINK-4546,1 53422U 22097AL  22280.58334491 -.01070499  00000-0 -33422-1 0  9994,2 53422  53.2174 322.5542 0001474  56.9395 142.3840 15.35415758  1306,6837.823,93.786,460.696,458.68,0.0
53422.0,STARLINK-4546,PAYLOAD,2022-10-07 22:00:00,15.34662308,0.0001483,53.2175,320.9974,51.2411,191.1401,-0.03455,-0.01079373,0.0,0 STARLINK-4546,1 53422U 22097AL  22280.91667824 -.01079373  00000-0 -34550-1 0  9993,2 53422  53.2175 320.9974 0001483  51.2411 191.1401 15.34662308  9627,6840.061,93.832,462.94,460.911,0.0
53422.0,STARLINK-4546,PAYLOAD,2022-10-08 14:00:01,15.33136627,0.0001326,53.2173,317.8952,53.8096,271.9537,-0.035905,-0.01069278,0.0,0 STARLINK-4546,1 53422U 22097AL  22281.58334491 -.01069278  00000-0 -35905-1 0  9996,2 53422  53.2173 317.8952 0001326  53.8096 271.9537 15.33136627  1302,6844.598000000001,93.925,467.37,465.555,0.0
53422.0,STARLINK-4546,PAYLOAD,2022-10-08 22:00:00,15.32373274,0.0001365,53.2175,316.3451,46.9953,319.0918,-0.036613,-0.01064734,0.0,0 STARLINK-4546,1 53422U 22097AL  22281.91667824 -.01064734  00000-0 -36613-1 0  9991,2 53422  53.2175 316.3451 0001365  46.9953 319.0918 15.32373274  1307,6846.871,93.972,469.67,467.801,0.0
53422.0,STARLINK-4546,PAYLOAD,2022-10-09 14:00:01,15.30859217,0.0001525,53.2171,313.2527,46.5652,37.4232,-0.0386339999999999,-0.01070783,0.0,0 STARLINK-4546,1 53422U 22097AL  22282.58334491 -.01070783  00000-0 -38634-1 0  9992,2 53422  53.2171 313.2527 0001525  46.5652  37.4232 15.30859217  1307,6851.384,94.065,474.294,472.205,0.0
53422.0,STARLINK-4546,PAYLOAD,2022-10-09 22:00:00,15.30094681,0.0001606,53.2174,311.7078,44.6239,76.9506,-0.039303,-0.01064235,0.0,0 STARLINK-4546,1 53422U 22097AL  22282.91667824 -.01064235  00000-0 -39303-1 0  9997,2 53422  53.2174 311.7078 0001606  44.6239  76.9506 15.30094681  9939,6853.667,94.112,476.632,474.431,0.0
53422.0,STARLINK-4546,PAYLOAD,2022-10-10 14:00:01,15.28575977,0.0001699999999999,53.2173,308.627,46.0966,147.9048,-0.041178,-0.010638,0.0,0 STARLINK-4546,1 53422U 22097AL  22283.58334491 -.01063800  00000-0 -41178-1 0  9992,2 53422  53.2173 308.6270 0001700  46.0966 147.9048 15.28575977  1307,6858.205,94.205,481.236,478.905,0.0
53422.0,STARLINK-4546,PAYLOAD,2022-10-10 22:00:01,15.27815757,0.0001495,53.2174,307.0865,55.8452,173.0665,-0.042116,-0.01062906,0.0,0 STARLINK-4546,1 53422U 22097AL  22283.91668981 -.01062906  00000-0 -42116-1 0  9992,2 53422  53.2174 307.0865 0001495  55.8452 173.0665 15.27815757  1307,6860.48,94.252,483.371,481.32,0.0
